{
  "type": "FeatureCollection",
  "features": [
    {
      "type": "Feature",
      "properties": {
        "norad_id": 66407,
        "name": "STARLINK-35686",
        "group": "last-30-days",
        "lat": -51.485700465740905,
        "lon": -167.60277971299155,
        "alt_km": 424.0128553834811,
        "timestamp": "2025-12-04T17:48:38.962370+00:00",
        "meta_object_name": "STARLINK-35686",
        "meta_object_id": "2025-257AD",
        "meta_epoch": "2025-12-04T05:51:56.386368",
        "meta_mean_motion": 15.49357825,
        "meta_eccentricity": 0.00015513,
        "meta_inclination": 53.1592,
        "meta_ra_of_asc_node": 304.3755,
        "meta_arg_of_pericenter": 86.2718,
        "meta_mean_anomaly": 273.8469,
        "meta_ephemeris_type": 0,
        "meta_classification_type": "U",
        "meta_norad_cat_id": 66407,
        "meta_element_set_no": 999,
        "meta_rev_at_epoch": 506,
        "meta_bstar": 0.0024385303,
        "meta_mean_motion_dot": 0.00137828,
        "meta_mean_motion_ddot": 0,
        "tle_line1": "1 66407U 25257AD  25338.24440262  .00137828  00000+0  24385-2 0  9991",
        "tle_line2": "2 66407  53.1592 304.3755 0001551  86.2718 273.8469 15.49357825  5060"
      },
      "geometry": {
        "type": "Point",
        "coordinates": [
          -167.60277971299155,
          -51.485700465740905
        ]
      }
    },
    {
      "type": "Feature",
      "properties": {
        "norad_id": 66408,
        "name": "STARLINK-35679",
        "group": "last-30-days",
        "lat": -51.96748006022559,
        "lon": -164.57020069763354,
        "alt_km": 423.8444802457261,
        "timestamp": "2025-12-04T17:48:38.962387+00:00",
        "meta_object_name": "STARLINK-35679",
        "meta_object_id": "2025-257AE",
        "meta_epoch": "2025-12-04T05:51:26.440992",
        "meta_mean_motion": 15.49370265,
        "meta_eccentricity": 0.00013085,
        "meta_inclination": 53.1591,
        "meta_ra_of_asc_node": 304.3751,
        "meta_arg_of_pericenter": 93.6816,
        "meta_mean_anomaly": 266.4343,
        "meta_ephemeris_type": 0,
        "meta_classification_type": "U",
        "meta_norad_cat_id": 66408,
        "meta_element_set_no": 999,
        "meta_rev_at_epoch": 506,
        "meta_bstar": 0.00221754,
        "meta_mean_motion_dot": 0.00125146,
        "meta_mean_motion_ddot": 0,
        "tle_line1": "1 66408U 25257AE  25338.24405603  .00125146  00000+0  22175-2 0  9997",
        "tle_line2": "2 66408  53.1591 304.3751 0001308  93.6816 266.4343 15.49370265  5069"
      },
      "geometry": {
        "type": "Point",
        "coordinates": [
          -164.57020069763354,
          -51.96748006022559
        ]
      }
    },
    {
      "type": "Feature",
      "properties": {
        "norad_id": 66409,
        "name": "CHUTIAN-2 A",
        "group": "last-30-days",
        "lat": 66.4954913774579,
        "lon": -116.80072954633889,
        "alt_km": 719.4535583231591,
        "timestamp": "2025-12-04T17:48:38.962398+00:00",
        "meta_object_name": "CHUTIAN-2 A",
        "meta_object_id": "2025-256A",
        "meta_epoch": "2025-12-04T07:21:27.134784",
        "meta_mean_motion": 14.49918429,
        "meta_eccentricity": 0.00133167,
        "meta_inclination": 98.2772,
        "meta_ra_of_asc_node": 43.2158,
        "meta_arg_of_pericenter": 203.6455,
        "meta_mean_anomaly": 156.4129,
        "meta_ephemeris_type": 0,
        "meta_classification_type": "U",
        "meta_norad_cat_id": 66409,
        "meta_element_set_no": 999,
        "meta_rev_at_epoch": 365,
        "meta_bstar": 5.0210259e-05,
        "meta_mean_motion_dot": 1.5e-06,
        "meta_mean_motion_ddot": 0,
        "tle_line1": "1 66409U 25256A   25338.30656406  .00000150  00000+0  50210-4 0  9993",
        "tle_line2": "2 66409  98.2772  43.2158 0013316 203.6455 156.4129 14.49918429  3657"
      },
      "geometry": {
        "type": "Point",
        "coordinates": [
          -116.80072954633889,
          66.4954913774579
        ]
      }
    },
    {
      "type": "Feature",
      "properties": {
        "norad_id": 66410,
        "name": "CHUTIAN-2 B",
        "group": "last-30-days",
        "lat": 1.8730213559622089,
        "lon": -136.04665939968254,
        "alt_km": 716.7007403750667,
        "timestamp": "2025-12-04T17:48:38.962409+00:00",
        "meta_object_name": "CHUTIAN-2 B",
        "meta_object_id": "2025-256B",
        "meta_epoch": "2025-12-04T08:43:03.053856",
        "meta_mean_motion": 14.51009123,
        "meta_eccentricity": 0.00133414,
        "meta_inclination": 98.28,
        "meta_ra_of_asc_node": 43.3076,
        "meta_arg_of_pericenter": 207.0925,
        "meta_mean_anomaly": 152.9575,
        "meta_ephemeris_type": 0,
        "meta_classification_type": "U",
        "meta_norad_cat_id": 66410,
        "meta_element_set_no": 999,
        "meta_rev_at_epoch": 366,
        "meta_bstar": 0.0003561149,
        "meta_mean_motion_dot": 1.366e-05,
        "meta_mean_motion_ddot": 0,
        "tle_line1": "1 66410U 25256B   25338.36322979  .00001366  00000+0  35611-3 0  9993",
        "tle_line2": "2 66410  98.2800  43.3076 0013341 207.0925 152.9575 14.51009123  3661"
      },
      "geometry": {
        "type": "Point",
        "coordinates": [
          -136.04665939968254,
          1.8730213559622089
        ]
      }
    },
    {
      "type": "Feature",
      "properties": {
        "norad_id": 66411,
        "name": "ZK-1A R/B",
        "group": "last-30-days",
        "lat": 57.82858275619947,
        "lon": -120.59564771518149,
        "alt_km": 693.9216137137291,
        "timestamp": "2025-12-04T17:48:38.962420+00:00",
        "meta_object_name": "ZK-1A R/B",
        "meta_object_id": "2025-256C",
        "meta_epoch": "2025-12-04T07:39:38.235456",
        "meta_mean_motion": 15.01662759,
        "meta_eccentricity": 0.02294036,
        "meta_inclination": 98.3248,
        "meta_ra_of_asc_node": 45.4898,
        "meta_arg_of_pericenter": 273.1287,
        "meta_mean_anomaly": 84.3712,
        "meta_ephemeris_type": 0,
        "meta_classification_type": "U",
        "meta_norad_cat_id": 66411,
        "meta_element_set_no": 999,
        "meta_rev_at_epoch": 378,
        "meta_bstar": 0.0011754212,
        "meta_mean_motion_dot": 0.00027073,
        "meta_mean_motion_ddot": 0,
        "tle_line1": "1 66411U 25256C   25338.31919254  .00027073  00000+0  11754-2 0  9991",
        "tle_line2": "2 66411  98.3248  45.4898 0229403 273.1287  84.3712 15.01662759  3787"
      },
      "geometry": {
        "type": "Point",
        "coordinates": [
          -120.59564771518149,
          57.82858275619947
        ]
      }
    },
    {
      "type": "Feature",
      "properties": {
        "norad_id": 66412,
        "name": "HULIANWANG DIGUI 13A",
        "group": "last-30-days",
        "lat": -6.8841356107204685,
        "lon": 121.45309138495016,
        "alt_km": 822.7838047581672,
        "timestamp": "2025-12-04T17:48:38.962430+00:00",
        "meta_object_name": "HULIANWANG DIGUI 13A",
        "meta_object_id": "2025-258A",
        "meta_epoch": "2025-12-04T08:30:07.161984",
        "meta_mean_motion": 14.23492997,
        "meta_eccentricity": 0.00141275,
        "meta_inclination": 50.0046,
        "meta_ra_of_asc_node": 297.2683,
        "meta_arg_of_pericenter": 328.1065,
        "meta_mean_anomaly": 31.8992,
        "meta_ephemeris_type": 0,
        "meta_classification_type": "U",
        "meta_norad_cat_id": 66412,
        "meta_element_set_no": 999,
        "meta_rev_at_epoch": 346,
        "meta_bstar": 0.00012502028,
        "meta_mean_motion_dot": 1.27e-06,
        "meta_mean_motion_ddot": 0,
        "tle_line1": "1 66412U 25258A   25338.35424956  .00000127  00000+0  12502-3 0  9992",
        "tle_line2": "2 66412  50.0046 297.2683 0014127 328.1065  31.8992 14.23492997  3468"
      },
      "geometry": {
        "type": "Point",
        "coordinates": [
          121.45309138495016,
          -6.8841356107204685
        ]
      }
    },
    {
      "type": "Feature",
      "properties": {
        "norad_id": 66413,
        "name": "HULIANWANG DIGUI 13B",
        "group": "last-30-days",
        "lat": 22.68604343641407,
        "lon": 95.15076268699897,
        "alt_km": 820.4321332496866,
        "timestamp": "2025-12-04T17:48:38.962442+00:00",
        "meta_object_name": "HULIANWANG DIGUI 13B",
        "meta_object_id": "2025-258B",
        "meta_epoch": "2025-12-04T07:00:04.222656",
        "meta_mean_motion": 14.23483795,
        "meta_eccentricity": 0.00134167,
        "meta_inclination": 50.0006,
        "meta_ra_of_asc_node": 297.5937,
        "meta_arg_of_pericenter": 328.6072,
        "meta_mean_anomaly": 31.4039,
        "meta_ephemeris_type": 0,
        "meta_classification_type": "U",
        "meta_norad_cat_id": 66413,
        "meta_element_set_no": 999,
        "meta_rev_at_epoch": 345,
        "meta_bstar": 0.00013756544,
        "meta_mean_motion_dot": 1.56e-06,
        "meta_mean_motion_ddot": 0,
        "tle_line1": "1 66413U 25258B   25338.29171554  .00000156  00000+0  13757-3 0  9994",
        "tle_line2": "2 66413  50.0006 297.5937 0013416 328.6072  31.4039 14.23483795  3456"
      },
      "geometry": {
        "type": "Point",
        "coordinates": [
          95.15076268699897,
          22.68604343641407
        ]
      }
    }
  ]
}